TYVAK-0172              
1 46267U 20059C   26068.62538449  .00278441  00000+0  21652-2 0  9997
2 46267  97.7214 311.0561 0003543  67.1132 293.0503 15.70916107303116
STARLINK-11705 [DTC]    
1 63758U 25089H   26067.99034614  .00268841  00000+0  20262-2 0  9992
2 63758  42.9994 296.6252 0001448 319.7608  40.3152 15.70903830 49971
